[{"OBJECT_NAME":"STARLINK-33676","OBJECT_ID":"2025-065E","EPOCH":"2025-08-24T10:21:42.646176","MEAN_MOTION":15.27575281,"ECCENTRICITY":8.67e-6,"INCLINATION":42.9997,"RA_OF_ASC_NODE":140.9358,"ARG_OF_PERICENTER":95.2846,"MEAN_ANOMALY":264.8015,"EPHEMERIS_TYPE":0,"CLASSIFICATION_TYPE":"U","NORAD_CAT_ID":63403,"ELEMENT_SET_NO":999,"REV_AT_EPOCH":2267,"BSTAR":0.00058422232,"MEAN_MOTION_DOT":0.00015847,"MEAN_MOTION_DDOT":0},{"OBJECT_NAME":"STARLINK-33711","OBJECT_ID":"2025-065F","EPOCH":"2025-08-24T03:33:37.067616","MEAN_MOTION":15.2760186,"ECCENTRICITY":0.00017549,"INCLINATION":43.002,"RA_OF_ASC_NODE":142.2505,"ARG_OF_PERICENTER":267.6069,"MEAN_ANOMALY":92.4582,"EPHEMERIS_TYPE":0,"CLASSIFICATION_TYPE":"U","NORAD_CAT_ID":63404,"ELEMENT_SET_NO":999,"REV_AT_EPOCH":2263,"BSTAR":0.00095821403,"MEAN_MOTION_DOT":0.00026217,"MEAN_MOTION_DDOT":0},{"OBJECT_NAME":"STARLINK-33708","OBJECT_ID":"2025-065G","EPOCH":"2025-08-24T02:36:28.058976","MEAN_MOTION":15.2759312,"ECCENTRICITY":0.00012678,"INCLINATION":43.0004,"RA_OF_ASC_NODE":142.8046,"ARG_OF_PERICENTER":282.651,"MEAN_ANOMALY":77.42,"EPHEMERIS_TYPE":0,"CLASSIFICATION_TYPE":"U","NORAD_CAT_ID":63405,"ELEMENT_SET_NO":999,"REV_AT_EPOCH":2262,"BSTAR":0.00045210967,"MEAN_MOTION_DOT":0.00012205,"MEAN_MOTION_DDOT":0},{"OBJECT_NAME":"STARLINK-33690","OBJECT_ID":"2025-065H","EPOCH":"2025-08-24T14:00:04.000032","MEAN_MOTION":15.27568477,"ECCENTRICITY":0.00016022,"INCLINATION":43.0007,"RA_OF_ASC_NODE":136.2714,"ARG_OF_PERICENTER":267.7668,"MEAN_ANOMALY":353.0774,"EPHEMERIS_TYPE":0,"CLASSIFICATION_TYPE":"U","NORAD_CAT_ID":63406,"ELEMENT_SET_NO":999,"REV_AT_EPOCH":575,"BSTAR":0.0011238656,"MEAN_MOTION_DOT":0.00030783,"MEAN_MOTION_DDOT":0},{"OBJECT_NAME":"STARLINK-33694","OBJECT_ID":"2025-065J","EPOCH":"2025-08-24T10:16:08.745600","MEAN_MOTION":15.27591159,"ECCENTRICITY":0.00013144,"INCLINATION":42.9985,"RA_OF_ASC_NODE":140.8964,"ARG_OF_PERICENTER":270.8513,"MEAN_ANOMALY":89.2188,"EPHEMERIS_TYPE":0,"CLASSIFICATION_TYPE":"U","NORAD_CAT_ID":63407,"ELEMENT_SET_NO":999,"REV_AT_EPOCH":2267,"BSTAR":0.0004317593,"MEAN_MOTION_DOT":0.00011642,"MEAN_MOTION_DDOT":0},{"OBJECT_NAME":"STARLINK-33692","OBJECT_ID":"2025-065K","EPOCH":"2025-08-24T03:27:34.642080","MEAN_MOTION":15.27595005,"ECCENTRICITY":0.00012737,"INCLINATION":43.0014,"RA_OF_ASC_NODE":146.5363,"ARG_OF_PERICENTER":270.9508,"MEAN_ANOMALY":89.1198,"EPHEMERIS_TYPE":0,"CLASSIFICATION_TYPE":"U","NORAD_CAT_ID":63408,"ELEMENT_SET_NO":999,"REV_AT_EPOCH":2258,"BSTAR":0.00045902201,"MEAN_MOTION_DOT":0.00012396,"MEAN_MOTION_DDOT":0},{"OBJECT_NAME":"STARLINK-33693","OBJECT_ID":"2025-065L","EPOCH":"2025-08-24T02:51:16.076448","MEAN_MOTION":15.27594105,"ECCENTRICITY":0.00014189,"INCLINATION":43.0009,"RA_OF_ASC_NODE":142.8825,"ARG_OF_PERICENTER":264.144,"MEAN_ANOMALY":95.925,"EPHEMERIS_TYPE":0,"CLASSIFICATION_TYPE":"U","NORAD_CAT_ID":63409,"ELEMENT_SET_NO":999,"REV_AT_EPOCH":2262,"BSTAR":0.00046303287,"MEAN_MOTION_DOT":0.00012507,"MEAN_MOTION_DDOT":0},{"OBJECT_NAME":"STARLINK-33677","OBJECT_ID":"2025-065M","EPOCH":"2025-08-24T02:40:08.754816","MEAN_MOTION":15.27582596,"ECCENTRICITY":0.00010666,"INCLINATION":43.0027,"RA_OF_ASC_NODE":142.8166,"ARG_OF_PERICENTER":289.5219,"MEAN_ANOMALY":70.5517,"EPHEMERIS_TYPE":0,"CLASSIFICATION_TYPE":"U","NORAD_CAT_ID":63410,"ELEMENT_SET_NO":999,"REV_AT_EPOCH":2262,"BSTAR":-0.00033167763,"MEAN_MOTION_DOT":-9.378e-5,"MEAN_MOTION_DDOT":0},{"OBJECT_NAME":"STARLINK-33647","OBJECT_ID":"2025-065N","EPOCH":"2025-08-24T03:49:05.073600","MEAN_MOTION":15.27594659,"ECCENTRICITY":0.00020125,"INCLINATION":43.0029,"RA_OF_ASC_NODE":150.1137,"ARG_OF_PERICENTER":253.7769,"MEAN_ANOMALY":106.2862,"EPHEMERIS_TYPE":0,"CLASSIFICATION_TYPE":"U","NORAD_CAT_ID":63411,"ELEMENT_SET_NO":999,"REV_AT_EPOCH":2254,"BSTAR":0.00063502278,"MEAN_MOTION_DOT":0.00017261,"MEAN_MOTION_DDOT":0},{"OBJECT_NAME":"STARLINK-33645","OBJECT_ID":"2025-065P","EPOCH":"2025-08-24T10:23:13.503552","MEAN_MOTION":15.28424222,"ECCENTRICITY":0.00011451,"INCLINATION":43.0001,"RA_OF_ASC_NODE":144.3314,"ARG_OF_PERICENTER":281.7656,"MEAN_ANOMALY":78.3068,"EPHEMERIS_TYPE":0,"CLASSIFICATION_TYPE":"U","NORAD_CAT_ID":63412,"ELEMENT_SET_NO":999,"REV_AT_EPOCH":2263,"BSTAR":0.00048241832,"MEAN_MOTION_DOT":0.00013383,"MEAN_MOTION_DDOT":0},{"OBJECT_NAME":"STARLINK-33670","OBJECT_ID":"2025-065Q","EPOCH":"2025-08-24T10:25:24.197376","MEAN_MOTION":15.27573917,"ECCENTRICITY":0.0001003,"INCLINATION":42.9948,"RA_OF_ASC_NODE":140.9195,"ARG_OF_PERICENTER":49.1053,"MEAN_ANOMALY":310.9885,"EPHEMERIS_TYPE":0,"CLASSIFICATION_TYPE":"U","NORAD_CAT_ID":63413,"ELEMENT_SET_NO":999,"REV_AT_EPOCH":2267,"BSTAR":0.00071581279,"MEAN_MOTION_DOT":0.00019484,"MEAN_MOTION_DDOT":0},{"OBJECT_NAME":"STARLINK-33644","OBJECT_ID":"2025-065R","EPOCH":"2025-08-24T00:32:54.381696","MEAN_MOTION":15.2759634,"ECCENTRICITY":0.00015757,"INCLINATION":42.9984,"RA_OF_ASC_NODE":143.8327,"ARG_OF_PERICENTER":276.7449,"MEAN_ANOMALY":83.3223,"EPHEMERIS_TYPE":0,"CLASSIFICATION_TYPE":"U","NORAD_CAT_ID":63414,"ELEMENT_SET_NO":999,"REV_AT_EPOCH":2260,"BSTAR":0.00069086137,"MEAN_MOTION_DOT":0.00018807,"MEAN_MOTION_DDOT":0},{"OBJECT_NAME":"STARLINK-33664","OBJECT_ID":"2025-065S","EPOCH":"2025-08-24T14:00:04.000032","MEAN_MOTION":15.27564269,"ECCENTRICITY":0.00015187,"INCLINATION":43.0016,"RA_OF_ASC_NODE":140.1667,"ARG_OF_PERICENTER":266.6835,"MEAN_ANOMALY":151.7322,"EPHEMERIS_TYPE":0,"CLASSIFICATION_TYPE":"U","NORAD_CAT_ID":63415,"ELEMENT_SET_NO":999,"REV_AT_EPOCH":582,"BSTAR":0.0011130002,"MEAN_MOTION_DOT":0.00030477,"MEAN_MOTION_DDOT":0},{"OBJECT_NAME":"STARLINK-33649","OBJECT_ID":"2025-065T","EPOCH":"2025-08-24T10:17:59.287488","MEAN_MOTION":15.27588179,"ECCENTRICITY":7.486e-5,"INCLINATION":42.9996,"RA_OF_ASC_NODE":140.8532,"ARG_OF_PERICENTER":301.1842,"MEAN_ANOMALY":58.8936,"EPHEMERIS_TYPE":0,"CLASSIFICATION_TYPE":"U","NORAD_CAT_ID":63416,"ELEMENT_SET_NO":999,"REV_AT_EPOCH":2267,"BSTAR":0.00084536086,"MEAN_MOTION_DOT":0.00023079,"MEAN_MOTION_DDOT":0},{"OBJECT_NAME":"STARLINK-33535","OBJECT_ID":"2025-065U","EPOCH":"2025-08-24T02:43:50.834784","MEAN_MOTION":15.27595087,"ECCENTRICITY":0.00015632,"INCLINATION":43.0037,"RA_OF_ASC_NODE":142.7741,"ARG_OF_PERICENTER":267.7671,"MEAN_ANOMALY":92.3002,"EPHEMERIS_TYPE":0,"CLASSIFICATION_TYPE":"U","NORAD_CAT_ID":63417,"ELEMENT_SET_NO":999,"REV_AT_EPOCH":2262,"BSTAR":0.00034356477,"MEAN_MOTION_DOT":9.208e-5,"MEAN_MOTION_DDOT":0},{"OBJECT_NAME":"STARLINK-33703","OBJECT_ID":"2025-065V","EPOCH":"2025-08-24T03:13:27.431328","MEAN_MOTION":15.27594281,"ECCENTRICITY":0.00017545,"INCLINATION":43.0039,"RA_OF_ASC_NODE":142.9466,"ARG_OF_PERICENTER":257.5147,"MEAN_ANOMALY":102.5509,"EPHEMERIS_TYPE":0,"CLASSIFICATION_TYPE":"U","NORAD_CAT_ID":63418,"ELEMENT_SET_NO":999,"REV_AT_EPOCH":2262,"BSTAR":0.00042120075,"MEAN_MOTION_DOT":0.00011351,"MEAN_MOTION_DDOT":0}]
