STARLINK-33676          
1 63403U 25065E   25236.43174359  .00015847  00000+0  58422-3 0  9996
2 63403  42.9997 140.9358 0000086  95.2846 264.8015 15.27575281 22672
STARLINK-33711          
1 63404U 25065F   25236.14834569  .00026217  00000+0  95821-3 0  9998
2 63404  43.0020 142.2505 0001754 267.6069  92.4582 15.27601860 22639
STARLINK-33708          
1 63405U 25065G   25236.10865809  .00012205  00000+0  45211-3 0  9996
2 63405  43.0004 142.8046 0001267 282.6510  77.4200 15.27593120 22623
STARLINK-33690          
1 63406U 25065H   25236.58337963  .00030783  00000+0  11239-2 0  9997
2 63406  43.0007 136.2714 0001602 267.7668 353.0774 15.27568477  5758
STARLINK-33694          
1 63407U 25065J   25236.42787900  .00011642  00000+0  43176-3 0  9990
2 63407  42.9985 140.8964 0001314 270.8513  89.2188 15.27591159 22674
STARLINK-33692          
1 63408U 25065K   25236.14415095  .00012396  00000+0  45902-3 0  9999
2 63408  43.0014 146.5363 0001273 270.9508  89.1198 15.27595005 22589
STARLINK-33693          
1 63409U 25065L   25236.11893607  .00012507  00000+0  46303-3 0  9996
2 63409  43.0009 142.8825 0001418 264.1440  95.9250 15.27594105 22626
STARLINK-33677          
1 63410U 25065M   25236.11121244 -.00009378  00000+0 -33168-3 0  9998
2 63410  43.0027 142.8166 0001066 289.5219  70.5517 15.27582596 22626
STARLINK-33647          
1 63411U 25065N   25236.15908650  .00017261  00000+0  63502-3 0  9990
2 63411  43.0029 150.1137 0002012 253.7769 106.2862 15.27594659 22548
STARLINK-33645          
1 63412U 25065P   25236.43279518  .00013383  00000+0  48242-3 0  9991
2 63412  43.0001 144.3314 0001145 281.7656  78.3068 15.28424222 22639
STARLINK-33670          
1 63413U 25065Q   25236.43430784  .00019484  00000+0  71581-3 0  9996
2 63413  42.9948 140.9195 0001003  49.1053 310.9885 15.27573917 22678
STARLINK-33644          
1 63414U 25065R   25236.02285164  .00018807  00000+0  69086-3 0  9997
2 63414  42.9984 143.8327 0001575 276.7449  83.3223 15.27596340 22604
STARLINK-33664          
1 63415U 25065S   25236.58337963  .00030477  00000+0  11130-2 0  9997
2 63415  43.0016 140.1667 0001518 266.6835 151.7322 15.27564269  5824
STARLINK-33649          
1 63416U 25065T   25236.42915842  .00023079  00000+0  84536-3 0  9990
2 63416  42.9996 140.8532 0000748 301.1842  58.8936 15.27588179 22671
STARLINK-33535          
1 63417U 25065U   25236.11378281  .00009208  00000+0  34356-3 0  9990
2 63417  43.0037 142.7741 0001563 267.7671  92.3002 15.27595087 22624
STARLINK-33703          
1 63418U 25065V   25236.13434527  .00011351  00000+0  42120-3 0  9999
2 63418  43.0039 142.9466 0001754 257.5147 102.5509 15.27594281 22621
